NORAD_CAT_ID,OBJECT_NAME,OBJECT_TYPE,EPOCH,MEAN_MOTION,ECCENTRICITY,INCLINATION,RA_OF_ASC_NODE,ARG_OF_PERICENTER,MEAN_ANOMALY,BSTAR,MEAN_MOTION_DOT,MEAN_MOTION_DDOT,TLE_LINE0,TLE_LINE1,TLE_LINE2,SEMIMAJOR_AXIS,PERIOD,APOGEE,PERIGEE,DECAYED
51123.0,STARLINK-3392,PAYLOAD,2022-09-17 03:50:43,15.08839607,0.0001982,53.2171,228.2737,49.074,311.0424,3.603e-06,-2.31e-06,0.0,0 STARLINK-3392,1 51123U 22005V   22260.16022313 -.00000231  00000-0  36030-5 0  9995,2 51123  53.2171 228.2737 0001982  49.0740 311.0424 15.08839607 37224,6917.882,95.438,541.118,538.375,0.0
51123.0,STARLINK-3392,PAYLOAD,2022-09-17 21:19:57,15.08844972,0.0002028,53.2175,225.003,53.9005,306.2175,8.154600000000001e-05,1.01e-05,0.0,0 STARLINK-3392,1 51123U 22005V   22260.88885744  .00001010  00000-0  81546-4 0  9995,2 51123  53.2175 225.0030 0002028  53.9005 306.2175 15.08844972 37331,6917.865,95.437,541.133,538.327,0.0
51123.0,STARLINK-3392,PAYLOAD,2022-09-18 05:16:53,15.08837673,0.0001892,53.2178,223.5152,51.8679,308.2483,1.0292e-05,-1.24e-06,0.0,0 STARLINK-3392,1 51123U 22005V   22261.22006457 -.00000124  00000-0  10292-4 0  9996,2 51123  53.2178 223.5152 0001892  51.8679 308.2483 15.08837673 38463,6917.888000000001,95.438,541.061,538.444,0.0
51123.0,STARLINK-3392,PAYLOAD,2022-09-18 21:10:44,15.0884636,0.0001857,53.2181,220.5395,62.0344,298.0836,-1.861e-06,-3.18e-06,0.0,0 STARLINK-3392,1 51123U 22005V   22261.88245976 -.00000318  00000-0 -18610-5 0  9998,2 51123  53.2181 220.5395 0001857  62.0344 298.0836 15.08846360 37489,6917.861,95.437,541.011,538.441,0.0
51123.0,STARLINK-3392,PAYLOAD,2022-09-19 06:43:03,15.08837505,0.0001931,53.2177,218.7574,50.338,309.7782,1.7132e-05,-1.6e-07,0.0,0 STARLINK-3392,1 51123U 22005V   22262.27990382 -.00000016  00000-0  17132-4 0  9991,2 51123  53.2177 218.7574 0001931  50.3380 309.7782 15.08837505 38623,6917.888000000001,95.438,541.089,538.4169999999998,0.0
51123.0,STARLINK-3392,PAYLOAD,2022-09-19 14:39:58,15.08843686,0.0001909,53.218,217.2711,51.3149,308.8014,2.6465e-05,1.33e-06,0.0,0 STARLINK-3392,1 51123U 22005V   22262.61109905  .00000133  00000-0  26465-4 0  9990,2 51123  53.2180 217.2711 0001909  51.3149 308.8014 15.08843686 37593,6917.869000000002,95.437,541.055,538.414,0.0
51123.0,STARLINK-3392,PAYLOAD,2022-09-20 03:23:04,15.08835652,0.0001937,53.2184,214.8924,53.5791,306.538,3.9091e-05,3.34e-06,0.0,0 STARLINK-3392,1 51123U 22005V   22263.14102335  .00000334  00000-0  39091-4 0  9991,2 51123  53.2184 214.8924 0001937  53.5791 306.5380 15.08835652 38758,6917.894,95.438,541.099,538.419,0.0
51123.0,STARLINK-3392,PAYLOAD,2022-09-20 06:33:50,15.08831775,0.0001916999999999,53.2183,214.2977,49.1395,310.9763,6.171800000000001e-05,6.94e-06,0.0,0 STARLINK-3392,1 51123U 22005V   22263.27350547  .00000694  00000-0  61718-4 0  9995,2 51123  53.2183 214.2977 0001917  49.1395 310.9763 15.08831775 37696,6917.906,95.438,541.097,538.444,0.0
51123.0,STARLINK-3392,PAYLOAD,2022-09-21 06:24:37,15.08835056,0.0001931,53.2183,209.8378,54.2273,305.8899,4.6234e-05,4.48e-06,0.0,0 STARLINK-3392,1 51123U 22005V   22264.26710531  .00000448  00000-0  46234-4 0  9991,2 51123  53.2183 209.8378 0001931  54.2273 305.8899 15.08835056 38925,6917.896,95.438,541.096,538.425,0.0
51123.0,STARLINK-3392,PAYLOAD,2022-09-22 12:36:57,15.08833435,0.0001861,53.2188,204.1871,50.1987,309.9169,1.1226e-05,-1.09e-06,0.0,0 STARLINK-3392,1 51123U 22005V   22265.52567043 -.00000109  00000-0  11226-4 0  9997,2 51123  53.2188 204.1871 0001861  50.1987 309.9169 15.08833435 38031,6917.9,95.438,541.053,538.4780000000002,0.0
51123.0,STARLINK-3392,PAYLOAD,2022-09-23 02:55:26,15.08829388,0.0001831999999999,53.2184,201.512,51.9914,308.1243,-1.5713e-05,-5.38e-06,0.0,0 STARLINK-3392,1 51123U 22005V   22266.12183704 -.00000538  00000-0 -15713-4 0  9994,2 51123  53.2184 201.5120 0001832  51.9914 308.1243 15.08829388 39208,6917.913000000001,95.438,541.045,538.51,0.0
51123.0,STARLINK-3392,PAYLOAD,2022-09-24 02:46:12,15.08842001,0.000174,53.2179,197.0526,57.325,302.791,0.00010751,1.423e-05,0.0,0 STARLINK-3392,1 51123U 22005V   22267.11542756  .00001423  00000-0  10751-3 0  9998,2 51123  53.2179 197.0526 0001740  57.3250 302.7910 15.08842001 39356,6917.874,95.437,540.943,538.536,0.0
51123.0,STARLINK-3392,PAYLOAD,2022-09-24 05:56:58,15.08849456,0.0001893,53.2183,196.4561,54.0428,306.0739,0.00015932,2.249e-05,0.0,0 STARLINK-3392,1 51123U 22005V   22267.24790149  .00002249  00000-0  15932-3 0  9996,2 51123  53.2183 196.4561 0001893  54.0428 306.0739 15.08849456 38292,6917.851,95.437,541.026,538.4069999999998,0.0
51123.0,STARLINK-3392,PAYLOAD,2022-09-25 02:36:59,15.08845989,0.0002156,53.2171,192.5903,42.9543,317.1617,0.00013237,1.819e-05,0.0,0 STARLINK-3392,1 51123U 22005V   22268.10902368  .00001819  00000-0  13237-3 0  9998,2 51123  53.2171 192.5903 0002156  42.9543 317.1617 15.08845989 38423,6917.861999999999,95.437,541.219,538.236,0.0
51123.0,STARLINK-3392,PAYLOAD,2022-09-26 02:27:47,15.08842629,0.0001778,53.218,188.1295,52.6293,307.4861,-7.3014e-05,-1.4499999999999992e-05,0.0,0 STARLINK-3392,1 51123U 22005V   22269.10263111 -.00001450  00000-0 -73014-4 0  9998,2 51123  53.2180 188.1295 0001778  52.6293 307.4861 15.08842629 39654,6917.871999999999,95.437,540.967,538.507,0.0
51123.0,STARLINK-3392,PAYLOAD,2022-09-26 12:00:06,15.08837841,0.0001817,53.2179,186.3459,52.4625,307.6532,-0.00012416,-2.263e-05,0.0,0 STARLINK-3392,1 51123U 22005V   22269.50007597 -.00002263  00000-0 -12416-3 0  9997,2 51123  53.2179 186.3459 0001817  52.4625 307.6532 15.08837841 38639,6917.887,95.438,541.009,538.495,0.0
51123.0,STARLINK-3392,PAYLOAD,2022-09-27 00:43:11,15.08846769,0.0001696,53.218,183.9667,53.6753,306.4396,-0.00017771,-3.116e-05,0.0,0 STARLINK-3392,1 51123U 22005V   22270.02999449 -.00003116  00000-0 -17771-3 0  9999,2 51123  53.2180 183.9667 0001696  53.6753 306.4396 15.08846769 39797,6917.86,95.437,540.898,538.5509999999998,0.0
51123.0,STARLINK-3392,PAYLOAD,2022-09-28 03:44:44,15.08844085,0.0001802,53.218,178.912,50.7256,309.3896,0.00013294,1.829e-05,0.0,0 STARLINK-3392,1 51123U 22005V   22271.15606726  .00001829  00000-0  13294-3 0  9990,2 51123  53.2180 178.9120 0001802  50.7256 309.3896 15.08844085 39965,6917.868,95.437,540.98,538.486,0.0
51123.0,STARLINK-3392,PAYLOAD,2022-09-29 03:35:31,15.08836816,0.0001751,53.2188,174.4496,59.7324,300.3841,0.00015096,2.115e-05,0.0,0 STARLINK-3392,1 51123U 22005V   22272.14967196  .00002115  00000-0  15096-3 0  9992,2 51123  53.2188 174.4496 0001751  59.7324 300.3841 15.08836816 40111,6917.89,95.438,540.966,538.544,0.0
51123.0,STARLINK-3392,PAYLOAD,2022-09-29 21:04:45,15.08847427,0.0001849,53.2186,171.1787,57.0405,303.0765,5.044300000000001e-05,5.15e-06,0.0,0 STARLINK-3392,1 51123U 22005V   22272.87830612  .00000515  00000-0  50443-4 0  9992,2 51123  53.2186 171.1787 0001849  57.0405 303.0765 15.08847427 39141,6917.858,95.437,541.002,538.444,0.0
51123.0,STARLINK-3392,PAYLOAD,2022-09-30 03:26:18,15.08841709,0.0001857,53.2178,169.9916,50.3277,309.7879,-1.267e-05,-4.9000000000000005e-06,0.0,0 STARLINK-3392,1 51123U 22005V   22273.14327146 -.00000490  00000-0 -12670-4 0  9990,2 51123  53.2178 169.9916 0001857  50.3277 309.7879 15.08841709 39183,6917.875,95.437,541.025,538.456,0.0
51123.0,STARLINK-3392,PAYLOAD,2022-09-30 16:09:23,15.08843403,0.0001828,53.2176,167.6128,49.3608,310.7543,6.056100000000001e-05,6.76e-06,0.0,0 STARLINK-3392,1 51123U 22005V   22273.67318739  .00000676  00000-0  60561-4 0  9992,2 51123  53.2176 167.6128 0001828  49.3608 310.7543 15.08843403 40348,6917.87,95.437,541.0,538.47,0.0
51123.0,STARLINK-3392,PAYLOAD,2022-09-30 20:55:32,15.08842774,0.0001748,53.2176,166.7205,49.3762,310.7382,2.1382e-06,-2.54e-06,0.0,0 STARLINK-3392,1 51123U 22005V   22273.87190914 -.00000254  00000-0  21382-5 0  9999,2 51123  53.2176 166.7205 0001748  49.3762 310.7382 15.08842774 39299,6917.871999999999,95.437,540.946,538.528,0.0
51123.0,STARLINK-3392,PAYLOAD,2022-10-01 09:38:38,15.08840874,0.0001796,53.2177,164.3414,48.2521,311.8625,-1.6818e-05,-5.56e-06,0.0,0 STARLINK-3392,1 51123U 22005V   22274.40182994 -.00000556  00000-0 -16818-4 0  9991,2 51123  53.2177 164.3414 0001796  48.2521 311.8625 15.08840874 39370,6917.878000000002,95.437,540.985,538.5,0.0
51123.0,STARLINK-3392,PAYLOAD,2022-10-01 20:46:19,15.08829018,0.0001635,53.217,162.2594,59.702,300.4133,0.00022076,3.226e-05,0.0,0 STARLINK-3392,1 51123U 22005V   22274.86550796  .00003226  00000-0  22076-3 0  9997,2 51123  53.2170 162.2594 0001635  59.7020 300.4133 15.08829018 39445,6917.9140000000025,95.438,540.91,538.648,0.0
51123.0,STARLINK-3392,PAYLOAD,2022-10-02 09:29:25,15.08828233,0.0001549,53.2178,159.8805,44.0626,316.0489,6.4432e-06,-1.85e-06,0.0,0 STARLINK-3392,1 51123U 22005V   22275.39543797 -.00000185  00000-0  64432-5 0  9995,2 51123  53.2178 159.8805 0001549  44.0626 316.0489 15.08828233 40608,6917.916,95.438,540.8530000000002,538.71,0.0
51123.0,STARLINK-3392,PAYLOAD,2022-10-02 20:37:08,15.08827826,0.0001536,53.217,157.7998,42.608,317.5031,-3.2091e-05,-7.98e-06,0.0,0 STARLINK-3392,1 51123U 22005V   22275.85912206 -.00000798  00000-0 -32091-4 0  9997,2 51123  53.2170 157.7998 0001536  42.6080 317.5031 15.08827826 39596,6917.918000000002,95.438,540.845,538.72,0.0
51123.0,STARLINK-3392,PAYLOAD,2022-10-03 01:23:17,15.08835707,0.0001663,53.2183,156.9064,64.52199999999999,295.5944,3.6557e-05,2.94e-06,0.0,0 STARLINK-3392,1 51123U 22005V   22276.05783632  .00000294  00000-0  36557-4 0  9999,2 51123  53.2183 156.9064 0001663  64.5220 295.5944 15.08835707 40705,6917.894,95.438,540.909,538.6080000000002,0.0
51123.0,STARLINK-3392,PAYLOAD,2022-10-03 09:20:11,15.08852121,0.0001906,53.219,155.4195,49.2012,310.9145,7.049899999999999e-05,8.34e-06,0.0,0 STARLINK-3392,1 51123U 22005V   22276.38902539  .00000834  00000-0  70499-4 0  9997,2 51123  53.2190 155.4195 0001906  49.2012 310.9145 15.08852121 40750,6917.843000000003,95.437,541.0269999999998,538.39,0.0
